[
    {
        "Altitude(m)": 577573.5032660754,
        "Argument of Periapsis(deg)": 0.0,
        "Eccentricity": 0.0,
        "Inclination(deg)": 97.0,
        "Latitude(deg)": -37.18927124518715,
        "Longitude(deg)": 55.34709249088989,
        "Mean Anomaly(deg)": -37.24140000000004,
        "RAAN(deg)": 150.0,
        "Satellite Name": "Starlink Shell 3 1926",
        "Satellite Number": 1926,
        "Semi-Major Axis(m)": 6938478.169268562,
        "Time(s)": 0
    },
    {
        "Altitude(m)": 577320.5152611235,
        "Argument of Periapsis(deg)": -0.0003965466804030246,
        "Eccentricity": 0.0,
        "Inclination(deg)": 97.0,
        "Latitude(deg)": -36.571153881143005,
        "Longitude(deg)": 55.18694127179788,
        "Mean Anomaly(deg)": -36.61592380229493,
        "RAAN(deg)": 150.00010433427403,
        "Satellite Name": "Starlink Shell 3 1926",
        "Satellite Number": 1926,
        "Semi-Major Axis(m)": 6938478.169268562,
        "Time(s)": 10
    },
    {
        "Altitude(m)": 577068.190989303,
        "Argument of Periapsis(deg)": -0.0007930933608060492,
        "Eccentricity": 0.0,
        "Inclination(deg)": 97.0,
        "Latitude(deg)": -35.95282808692255,
        "Longitude(deg)": 55.028654309201116,
        "Mean Anomaly(deg)": -35.99044760458992,
        "RAAN(deg)": 150.00020866854803,
        "Satellite Name": "Starlink Shell 3 1926",
        "Satellite Number": 1926,
        "Semi-Major Axis(m)": 6938478.169268562,
        "Time(s)": 20
    },
    {
        "Altitude(m)": 576816.6275015515,
        "Argument of Periapsis(deg)": -0.001189640041209074,
        "Eccentricity": 0.0,
        "Inclination(deg)": 97.0,
        "Latitude(deg)": -35.33429858418399,
        "Longitude(deg)": 54.87216165463303,
        "Mean Anomaly(deg)": -35.364971406884926,
        "RAAN(deg)": 150.00031300282205,
        "Satellite Name": "Starlink Shell 3 1926",
        "Satellite Number": 1926,
        "Semi-Major Axis(m)": 6938478.169268562,
        "Time(s)": 30
    },
    {
        "Altitude(m)": 576565.9213409817,
        "Argument of Periapsis(deg)": -0.0015861867216120985,
        "Eccentricity": 0.0,
        "Inclination(deg)": 97.0,
        "Latitude(deg)": -34.715569954619404,
        "Longitude(deg)": 54.71739677679687,
        "Mean Anomaly(deg)": -34.7394952091798,
        "RAAN(deg)": 150.00041733709605,
        "Satellite Name": "Starlink Shell 3 1926",
        "Satellite Number": 1926,
        "Semi-Major Axis(m)": 6938478.169268562,
        "Time(s)": 40
    },
    {
        "Altitude(m)": 576316.1684989796,
        "Argument of Periapsis(deg)": -0.0019827334020151234,
        "Eccentricity": 0.0,
        "Inclination(deg)": 97.0,
        "Latitude(deg)": -34.09664664983705,
        "Longitude(deg)": 54.56429539179093,
        "Mean Anomaly(deg)": -34.11401901147481,
        "RAAN(deg)": 150.00052167137008,
        "Satellite Name": "Starlink Shell 3 1926",
        "Satellite Number": 1926,
        "Semi-Major Axis(m)": 6938478.169268562,
        "Time(s)": 50
    },
    {
        "Altitude(m)": 576067.4643715157,
        "Argument of Periapsis(deg)": -0.002379280082418148,
        "Eccentricity": 0.0,
        "Inclination(deg)": 97.0,
        "Latitude(deg)": -33.477533000576436,
        "Longitude(deg)": 54.41279581639369,
        "Mean Anomaly(deg)": -33.48854281376968,
        "RAAN(deg)": 150.00062600564405,
        "Satellite Name": "Starlink Shell 3 1926",
        "Satellite Number": 1926,
        "Semi-Major Axis(m)": 6938478.169268562,
        "Time(s)": 60
    },
    {
        "Altitude(m)": 575819.9037156714,
        "Argument of Periapsis(deg)": -0.002775826762821173,
        "Eccentricity": 0.0,
        "Inclination(deg)": 97.0,
        "Latitude(deg)": -32.85823322530901,
        "Longitude(deg)": 54.262839330787756,
        "Mean Anomaly(deg)": -32.86306661606467,
        "RAAN(deg)": 150.00073033991808,
        "Satellite Name": "Starlink Shell 3 1926",
        "Satellite Number": 1926,
        "Semi-Major Axis(m)": 6938478.169268562,
        "Time(s)": 70
    },
    {
        "Altitude(m)": 575573.5806064653,
        "Argument of Periapsis(deg)": -0.003172373443224197,
        "Eccentricity": 0.0,
        "Inclination(deg)": 97.0,
        "Latitude(deg)": -32.238751438267066,
        "Longitude(deg)": 54.114369037160245,
        "Mean Anomaly(deg)": -32.23759041835967,
        "RAAN(deg)": 150.00083467419208,
        "Satellite Name": "Starlink Shell 3 1926",
        "Satellite Number": 1926,
        "Semi-Major Axis(m)": 6938478.169268562,
        "Time(s)": 80
    },
    {
        "Altitude(m)": 575328.5883939293,
        "Argument of Periapsis(deg)": -0.0035689201236272223,
        "Eccentricity": 0.0,
        "Inclination(deg)": 97.0,
        "Latitude(deg)": -31.619091656940476,
        "Longitude(deg)": 53.96733023929103,
        "Mean Anomaly(deg)": -31.612114220654675,
        "RAAN(deg)": 150.00093900846608,
        "Satellite Name": "Starlink Shell 3 1926",
        "Satellite Number": 1926,
        "Semi-Major Axis(m)": 6938478.169268562,
        "Time(s)": 90
    },
    {
        "Altitude(m)": 575085.0196605172,
        "Argument of Periapsis(deg)": -0.003965466804030247,
        "Eccentricity": 0.0,
        "Inclination(deg)": 97.0,
        "Latitude(deg)": -30.999257809078365,
        "Longitude(deg)": 53.82167082967554,
        "Mean Anomaly(deg)": -30.986638022949556,
        "RAAN(deg)": 150.0010433427401,
        "Satellite Name": "Starlink Shell 3 1926",
        "Satellite Number": 1926,
        "Semi-Major Axis(m)": 6938478.169268562,
        "Time(s)": 100
    },
    {
        "Altitude(m)": 574842.9661788396,
        "Argument of Periapsis(deg)": -0.004362013484433271,
        "Eccentricity": 0.0,
        "Inclination(deg)": 97.0,
        "Latitude(deg)": -30.37925373923281,
        "Longitude(deg)": 53.67734017077304,
        "Mean Anomaly(deg)": -30.361161825244558,
        "RAAN(deg)": 150.0011476770141,
        "Satellite Name": "Starlink Shell 3 1926",
        "Satellite Number": 1926,
        "Semi-Major Axis(m)": 6938478.169268562,
        "Time(s)": 110
    },
    {
        "Altitude(m)": 574602.518869717,
        "Argument of Periapsis(deg)": -0.004758560164836296,
        "Eccentricity": 0.0,
        "Inclination(deg)": 97.0,
        "Latitude(deg)": -29.759083214871076,
        "Longitude(deg)": 53.53428949563284,
        "Mean Anomaly(deg)": -29.73568562753944,
        "RAAN(deg)": 150.0012520112881,
        "Satellite Name": "Starlink Shell 3 1926",
        "Satellite Number": 1926,
        "Semi-Major Axis(m)": 6938478.169268562,
        "Time(s)": 120
    },
    {
        "Altitude(m)": 574363.7677606597,
        "Argument of Periapsis(deg)": -0.005155106845239321,
        "Eccentricity": 0.0,
        "Inclination(deg)": 97.0,
        "Latitude(deg)": -29.138749932089368,
        "Longitude(deg)": 53.39247231457103,
        "Mean Anomaly(deg)": -29.11020942983444,
        "RAAN(deg)": 150.00135634556213,
        "Satellite Name": "Starlink Shell 3 1926",
        "Satellite Number": 1926,
        "Semi-Major Axis(m)": 6938478.169268562,
        "Time(s)": 130
    },
    {
        "Altitude(m)": 574126.8019446938,
        "Argument of Periapsis(deg)": -0.005551653525642346,
        "Eccentricity": 0.0,
        "Inclination(deg)": 97.0,
        "Latitude(deg)": -28.51825752095388,
        "Longitude(deg)": 53.25184331460647,
        "Mean Anomaly(deg)": -28.484733232129447,
        "RAAN(deg)": 150.00146067983613,
        "Satellite Name": "Starlink Shell 3 1926",
        "Satellite Number": 1926,
        "Semi-Major Axis(m)": 6938478.169268562,
        "Time(s)": 140
    },
    {
        "Altitude(m)": 573891.7095396204,
        "Argument of Periapsis(deg)": -0.005948200206045371,
        "Eccentricity": 0.0,
        "Inclination(deg)": 97.0,
        "Latitude(deg)": -27.897609550492625,
        "Longitude(deg)": 53.11235877701296,
        "Mean Anomaly(deg)": -27.859257034424427,
        "RAAN(deg)": 150.00156501411016,
        "Satellite Name": "Starlink Shell 3 1926",
        "Satellite Number": 1926,
        "Semi-Major Axis(m)": 6938478.169268562,
        "Time(s)": 150
    },
    {
        "Altitude(m)": 573658.5776477286,
        "Argument of Periapsis(deg)": -0.006344746886448394,
        "Eccentricity": 0.0,
        "Inclination(deg)": 97.0,
        "Latitude(deg)": -27.27680953336105,
        "Longitude(deg)": 52.97397699975813,
        "Mean Anomaly(deg)": -27.23378083671933,
        "RAAN(deg)": 150.00166934838416,
        "Satellite Name": "Starlink Shell 3 1926",
        "Satellite Number": 1926,
        "Semi-Major Axis(m)": 6938478.169268562,
        "Time(s)": 160
    },
    {
        "Altitude(m)": 573427.492315939,
        "Argument of Periapsis(deg)": -0.00674129356685142,
        "Eccentricity": 0.0,
        "Inclination(deg)": 97.0,
        "Latitude(deg)": -26.655860930205566,
        "Longitude(deg)": 52.836657211625415,
        "Mean Anomaly(deg)": -26.608304639014232,
        "RAAN(deg)": 150.00177368265818,
        "Satellite Name": "Starlink Shell 3 1926",
        "Satellite Number": 1926,
        "Semi-Major Axis(m)": 6938478.169268562,
        "Time(s)": 170
    },
    {
        "Altitude(m)": 573198.5384964435,
        "Argument of Periapsis(deg)": -0.007137840247254445,
        "Eccentricity": 0.0,
        "Inclination(deg)": 97.0,
        "Latitude(deg)": -26.03476715373957,
        "Longitude(deg)": 52.700360003457824,
        "Mean Anomaly(deg)": -25.982828441309188,
        "RAAN(deg)": 150.00187801693215,
        "Satellite Name": "Starlink Shell 3 1926",
        "Satellite Number": 1926,
        "Semi-Major Axis(m)": 6938478.169268562,
        "Time(s)": 180
    }
]